NORAD_CAT_ID,OBJECT_NAME,OBJECT_TYPE,EPOCH,MEAN_MOTION,ECCENTRICITY,INCLINATION,RA_OF_ASC_NODE,ARG_OF_PERICENTER,MEAN_ANOMALY,BSTAR,MEAN_MOTION_DOT,MEAN_MOTION_DDOT,TLE_LINE0,TLE_LINE1,TLE_LINE2,SEMIMAJOR_AXIS,PERIOD,APOGEE,PERIGEE,DECAYED
53935.0,STARLINK-5000,PAYLOAD,2024-01-02 22:19:40,15.08844528,0.0001572,53.2176,265.793,86.8441,273.2731,6.1384e-05,6.89e-06,0.0,0 STARLINK-5000,1 53935U 22119BB  24002.93033043  .00000689  00000-0  61384-4 0  9992,2 53935  53.2176 265.7930 0001572  86.8441 273.2731 15.08844528 71894,6917.867,95.437,540.819,538.644,0.0
53935.0,STARLINK-5000,PAYLOAD,2024-01-03 01:30:26,15.0884705,0.0001511,53.2172,265.1965,93.4804,266.6361,8.3378e-05,1.039e-05,0.0,0 STARLINK-5000,1 53935U 22119BB  24003.06280730  .00001039  00000-0  83378-4 0  9991,2 53935  53.2172 265.1965 0001511  93.4804 266.6361 15.08847050 71913,6917.859,95.437,540.769,538.679,0.0
53935.0,STARLINK-5000,PAYLOAD,2024-01-03 22:10:27,15.08843805,0.000165,53.2178,261.3303,105.3198,254.7977,-3.942e-05,-9.15e-06,0.0,0 STARLINK-5000,1 53935U 22119BB  24003.92393067 -.00000915  00000-0 -39420-4 0  9997,2 53935  53.2178 261.3303 0001650 105.3198 254.7977 15.08843805 72046,6917.869,95.437,540.875,538.592,0.0
53935.0,STARLINK-5000,PAYLOAD,2024-01-03 23:45:50,15.08844455,0.0001715,53.2176,261.0326,107.8565,252.2615,-2.9174e-05,-7.52e-06,0.0,0 STARLINK-5000,1 53935U 22119BB  24003.99016958 -.00000752  00000-0 -29174-4 0  9999,2 53935  53.2176 261.0326 0001715 107.8565 252.2615 15.08844455 71631,6917.867,95.437,540.918,538.545,0.0
53935.0,STARLINK-5000,PAYLOAD,2024-01-04 22:01:14,15.08838934,0.0001661,53.2173,256.8698,103.8435,256.2742,3.0634e-05,2e-06,0.0,0 STARLINK-5000,1 53935U 22119BB  24004.91753172  .00000200  00000-0  30634-4 0  9997,2 53935  53.2173 256.8698 0001661 103.8435 256.2742 15.08838934 72196,6917.884,95.438,540.898,538.6,0.0
53935.0,STARLINK-5000,PAYLOAD,2024-01-05 02:47:24,15.08839844,0.0001674,53.2173,255.9779,104.3675,255.7503,3.4935e-05,2.68e-06,0.0,0 STARLINK-5000,1 53935U 22119BB  24005.11625088  .00000268  00000-0  34935-4 0  9996,2 53935  53.2173 255.9779 0001674 104.3675 255.7503 15.08839844 71809,6917.881,95.438,540.904,538.588,0.0
53935.0,STARLINK-5000,PAYLOAD,2024-01-05 20:16:39,15.08832975,0.0001728,53.2172,252.7055,107.7763,252.3417,3.5711e-05,2.8e-06,0.0,0 STARLINK-5000,1 53935U 22119BB  24005.84489796  .00000280  00000-0  35711-4 0  9997,2 53935  53.2172 252.7055 0001728 107.7763 252.3417 15.08832975 71912,6917.902,95.438,540.962,538.571,0.0
53935.0,STARLINK-5000,PAYLOAD,2024-01-05 21:52:02,15.0883311,0.0001721,53.2172,252.4082,107.8982,252.2198,3.4231e-05,2.57e-06,0.0,0 STARLINK-5000,1 53935U 22119BB  24005.91113812  .00000257  00000-0  34231-4 0  9998,2 53935  53.2172 252.4082 0001721 107.8982 252.2198 15.08833110 72341,6917.901,95.438,540.957,538.576,0.0
53935.0,STARLINK-5000,PAYLOAD,2024-01-06 21:42:49,15.08840033,0.000169,53.2171,247.9487,107.7723,252.3454,7.1556e-05,8.51e-06,0.0,0 STARLINK-5000,1 53935U 22119BB  24006.90473537  .00000851  00000-0  71556-4 0  9992,2 53935  53.2171 247.9487 0001690 107.7723 252.3454 15.08840033 72499,6917.88,95.438,540.914,538.576,0.0
53935.0,STARLINK-5000,PAYLOAD,2024-01-07 00:53:35,15.0883957,0.0001642,53.2168,247.3541,105.9115,254.2058,6.3903e-05,7.29e-06,0.0,0 STARLINK-5000,1 53935U 22119BB  24007.03721608  .00000729  00000-0  63903-4 0  9993,2 53935  53.2168 247.3541 0001642 105.9115 254.2058 15.08839570 72093,6917.882,95.438,540.883,538.611,0.0
53935.0,STARLINK-5000,PAYLOAD,2024-01-07 21:33:36,15.08839234,0.000166,53.2168,243.4895,113.4843,246.6324,8.4212e-05,1.052e-05,0.0,0 STARLINK-5000,1 53935U 22119BB  24007.89833718  .00001052  00000-0  84212-4 0  9999,2 53935  53.2168 243.4895 0001660 113.4843 246.6324 15.08839234 72643,6917.883,95.438,540.896,538.599,0.0
53935.0,STARLINK-5000,PAYLOAD,2024-01-07 23:08:59,15.08839758,0.0001499,53.2165,243.192,101.8986,258.2174,9.0639e-05,1.155e-05,0.0,0 STARLINK-5000,1 53935U 22119BB  24007.96457731  .00001155  00000-0  90639-4 0  9998,2 53935  53.2165 243.1920 0001499 101.8986 258.2174 15.08839758 72659,6917.881,95.438,540.783,538.709,0.0
53935.0,STARLINK-5000,PAYLOAD,2024-01-08 19:49:00,15.08838252,0.0001619,53.2171,239.3258,85.1674,274.9503,6.5108e-06,-1.84e-06,0.0,0 STARLINK-5000,1 53935U 22119BB  24008.82570343 -.00000184  00000-0  65108-5 0  9995,2 53935  53.2171 239.3258 0001619  85.1674 274.9503 15.08838252 72366,6917.886,95.438,540.871,538.631,0.0
53935.0,STARLINK-5000,PAYLOAD,2024-01-08 21:24:23,15.08837844,0.0001572,53.217,239.0285,87.8271,272.2901,8.3195e-07,-2.75e-06,0.0,0 STARLINK-5000,1 53935U 22119BB  24008.89194359 -.00000275  00000-0  83195-6 0  9999,2 53935  53.2170 239.0285 0001572  87.8271 272.2901 15.08837844 72798,6917.887,95.438,540.839,538.664,0.0
53935.0,STARLINK-5000,PAYLOAD,2024-01-09 14:53:38,15.08840181,0.000162,53.2171,235.7566,77.1835,282.9338,5.279e-05,5.52e-06,0.0,0 STARLINK-5000,1 53935U 22119BB  24009.62058158  .00000552  00000-0  52790-4 0  9999,2 53935  53.2171 235.7566 0001620  77.1835 282.9338 15.08840181 72909,6917.88,95.438,540.866,538.624,0.0
53935.0,STARLINK-5000,PAYLOAD,2024-01-09 21:15:10,15.0884294,0.0001617,53.2168,234.5691,78.1731,281.9442,7.8826e-05,9.67e-06,0.0,0 STARLINK-5000,1 53935U 22119BB  24009.88553869  .00000967  00000-0  78826-4 0  9994,2 53935  53.2168 234.5691 0001617  78.1731 281.9442 15.08842940 72947,6917.871,95.437,540.855,538.618,0.0
53935.0,STARLINK-5000,PAYLOAD,2024-01-10 00:25:56,15.08845938,0.0001601,53.2168,233.9731,80.4479,279.6694,0.00010084,1.317e-05,0.0,0 STARLINK-5000,1 53935U 22119BB  24010.01801572  .00001317  00000-0  10084-3 0  9999,2 53935  53.2168 233.9731 0001601  80.4479 279.6694 15.08845938 72542,6917.862,95.437,540.835,538.62,0.0
53935.0,STARLINK-5000,PAYLOAD,2024-01-10 19:30:34,15.08841769,0.0001494,53.2161,230.4044,89.308,270.8084,7.7196e-05,9.41e-06,0.0,0 STARLINK-5000,1 53935U 22119BB  24010.81289830  .00000941  00000-0  77196-4 0  9994,2 53935  53.2161 230.4044 0001494  89.3080 270.8084 15.08841769 72667,6917.875,95.437,540.774,538.706,0.0
53935.0,STARLINK-5000,PAYLOAD,2024-01-11 14:35:12,15.08843626,0.0001604,53.2168,226.8361,101.1189,258.9984,2.2966e-05,7.8e-07,0.0,0 STARLINK-5000,1 53935U 22119BB  24011.60777796  .00000078  00000-0  22966-4 0  9991,2 53935  53.2168 226.8361 0001604 101.1189 258.9984 15.08843626 73202,6917.869,95.437,540.844,538.625,0.0
53935.0,STARLINK-5000,PAYLOAD,2024-01-11 20:56:44,15.08843265,0.0001598,53.2171,225.6467,110.1951,249.9213,1.3581e-05,-7.2e-07,0.0,0 STARLINK-5000,1 53935U 22119BB  24011.87273699 -.00000072  00000-0  13581-4 0  9991,2 53935  53.2171 225.6467 0001598 110.1951 249.9213 15.08843265 73247,6917.87,95.437,540.841,538.63,0.0
53935.0,STARLINK-5000,PAYLOAD,2024-01-12 00:07:30,15.08844221,0.0001548,53.2168,225.0515,108.4898,251.6263,1.806e-05,-1e-08,0.0,0 STARLINK-5000,1 53935U 22119BB  24012.00521588 -.00000001  00000-0  18060-4 0  9999,2 53935  53.2168 225.0515 0001548 108.4898 251.6263 15.08844221 72849,6917.867,95.437,540.803,538.662,0.0
53935.0,STARLINK-5000,PAYLOAD,2024-01-12 19:12:09,15.08833487,0.0001475,53.2166,221.4823,107.8436,252.2718,-4.1184e-05,-9.43e-06,0.0,0 STARLINK-5000,1 53935U 22119BB  24012.80010618 -.00000943  00000-0 -41184-4 0  9993,2 53935  53.2166 221.4823 0001475 107.8436 252.2718 15.08833487 72966,6917.9,95.438,540.786,538.745,0.0
53935.0,STARLINK-5000,PAYLOAD,2024-01-12 20:47:32,15.08833971,0.0001467,53.2166,221.1849,106.9927,253.1226,-3.8603e-05,-9.02e-06,0.0,0 STARLINK-5000,1 53935U 22119BB  24012.86634589 -.00000902  00000-0 -38603-4 0  9995,2 53935  53.2166 221.1849 0001467 106.9927 253.1226 15.08833971 73397,6917.899,95.438,540.779,538.749,0.0
53935.0,STARLINK-5000,PAYLOAD,2024-01-13 12:41:23,15.08834261,0.0001436,53.2164,218.2102,110.4056,249.709,-5.6e-06,-3.77e-06,0.0,0 STARLINK-5000,1 53935U 22119BB  24013.52874717 -.00000377  00000-0 -56000-5 0  9996,2 53935  53.2164 218.2102 0001436 110.4056 249.7090 15.08834261 73497,6917.898,95.438,540.756,538.77,0.0
53935.0,STARLINK-5000,PAYLOAD,2024-01-13 19:02:56,15.08838642,0.0001397,53.2161,217.0215,112.6594,247.4546,2.7544e-05,1.5e-06,0.0,0 STARLINK-5000,1 53935U 22119BB  24013.79370399  .00000150  00000-0  27544-4 0  9999,2 53935  53.2161 217.0215 0001397 112.6594 247.4546 15.08838642 73110,6917.885,95.438,540.716,538.783,0.0
53935.0,STARLINK-5000,PAYLOAD,2024-01-13 20:38:19,15.08837161,0.0001388,53.2165,216.7248,109.7622,250.352,1.917e-05,1.7e-07,0.0,0 STARLINK-5000,1 53935U 22119BB  24013.85994536  .00000017  00000-0  19170-4 0  9999,2 53935  53.2165 216.7248 0001388 109.7622 250.3520 15.08837161 73542,6917.889,95.438,540.714,538.794,0.0
53935.0,STARLINK-5000,PAYLOAD,2024-01-14 22:04:29,15.08841811,0.0001272,53.2164,211.9691,110.8212,249.2917,0.00010712,1.417e-05,0.0,0 STARLINK-5000,1 53935U 22119BB  24014.91978297  .00001417  00000-0  10712-3 0  9990,2 53935  53.2164 211.9691 0001272 110.8212 249.2917 15.08841811 73702,6917.875,95.437,540.62,538.86,0.0
53935.0,STARLINK-5000,PAYLOAD,2024-01-14 23:39:52,15.08842341,0.000126,53.2163,211.6712,110.2529,249.8599,0.00011208,1.496e-05,0.0,0 STARLINK-5000,1 53935U 22119BB  24014.98602254  .00001496  00000-0  11208-3 0  9992,2 53935  53.2163 211.6712 0001260 110.2529 249.8599 15.08842341 73299,6917.873,95.437,540.61,538.867,0.0
53935.0,STARLINK-5000,PAYLOAD,2024-01-15 12:22:57,15.08840713,0.0001278,53.2165,209.2916,111.5487,248.5642,6.8766e-05,8.07e-06,0.0,0 STARLINK-5000,1 53935U 22119BB  24015.51594532  .00000807  00000-0  68766-4 0  9998,2 53935  53.2165 209.2916 0001278 111.5487 248.5642 15.08840713 73797,6917.878,95.438,540.627,538.859,0.0
53935.0,STARLINK-5000,PAYLOAD,2024-01-15 20:19:53,15.0884322,0.0001331,53.2163,207.8049,94.9655,265.1489,3.6969e-05,3.01e-06,0.0,0 STARLINK-5000,1 53935U 22119BB  24015.84714503  .00000301  00000-0  36969-4 0  9995,2 53935  53.2163 207.8049 0001331  94.9655 265.1489 15.08843220 73843,6917.871,95.437,540.656,538.815,0.0
